SHIYAN-24C 03           
1 58652U 23206C   26068.89147317  .00001350  00000+0  11928-3 0  9993
2 58652  97.3969  41.7507 0002411  66.6237 293.5240 14.97896938120432
STARLINK-34620          
1 64803U 25150P   26068.56205624  .00006578  00000+0  55824-3 0  9998
2 64803  70.0012 134.9355 0003773 270.7588  89.3139 14.98350238 36498
